{
  "norad_id": 59850,
  "name": "STARLINK-31899",
  "history": [
    {
      "epoch": "2026-03-28T11:53:00.267072Z",
      "apogee_km": 483.5880216494279,
      "perigee_km": 482.46827949685485,
      "latitude_deg": 2.7132880614237517e-05,
      "longitude_deg": 163.92194616144505,
      "height_km": 482.9324339537137,
      "semi_major_axis_km": 6861.165150573142,
      "eccentricity": 8.16e-05,
      "inclination_deg": 43.0005,
      "raan_deg": 168.0878,
      "arg_perigee_deg": 256.7761,
      "mean_anomaly_deg": 103.3,
      "mean_motion_rev_day": 15.27586995
    },
    {
      "epoch": "2026-03-29T05:08:43.384128Z",
      "apogee_km": 483.8869143788279,
      "perigee_km": 482.20455237260376,
      "latitude_deg": -3.355643751669977e-05,
      "longitude_deg": -99.77899725005733,
      "height_km": 482.7601058199482,
      "semi_major_axis_km": 6861.1827333757155,
      "eccentricity": 0.0001226,
      "inclination_deg": 43.0006,
      "raan_deg": 164.0255,
      "arg_perigee_deg": 274.2446,
      "mean_anomaly_deg": 85.8265,
      "mean_motion_rev_day": 15.27581123
    },
    {
      "epoch": "2026-03-30T04:41:04.557696Z",
      "apogee_km": 484.0218803239268,
      "perigee_km": 482.08976842458196,
      "latitude_deg": -2.0640856843746602e-05,
      "longitude_deg": -99.3732272555662,
      "height_km": 482.81222598748434,
      "semi_major_axis_km": 6861.192824374254,
      "eccentricity": 0.0001408,
      "inclination_deg": 43.0012,
      "raan_deg": 158.4862,
      "arg_perigee_deg": 271.2127,
      "mean_anomaly_deg": 88.8563,
      "mean_motion_rev_day": 15.27577753
    },
    {
      "epoch": "2026-03-30T14:06:00.842400Z",
      "apogee_km": 483.91085912615017,
      "perigee_km": 482.19405230054235,
      "latitude_deg": 5.277831013292694e-05,
      "longitude_deg": 116.7881455211055,
      "height_km": 482.9711998639809,
      "semi_major_axis_km": 6861.189455713346,
      "eccentricity": 0.00012511,
      "inclination_deg": 42.9994,
      "raan_deg": 156.2687,
      "arg_perigee_deg": 260.4596,
      "mean_anomaly_deg": 99.6115,
      "mean_motion_rev_day": 15.27578878
    },
    {
      "epoch": "2026-03-31T12:04:11.339328Z",
      "apogee_km": 484.05030612254905,
      "perigee_km": 482.00142566753493,
      "latitude_deg": -4.935790254589082e-06,
      "longitude_deg": 141.17258926175768,
      "height_km": 482.93992938598166,
      "semi_major_axis_km": 6861.162865895041,
      "eccentricity": 0.00014931,
      "inclination_deg": 43.0,
      "raan_deg": 151.0992,
      "arg_perigee_deg": 262.2969,
      "mean_anomaly_deg": 97.7713,
      "mean_motion_rev_day": 15.27587758
    },
    {
      "epoch": "2026-04-01T05:19:55.877664Z",
      "apogee_km": 484.0490447488355,
      "perigee_km": 482.0993629731456,
      "latitude_deg": -1.7553507658785953e-06,
      "longitude_deg": -122.53262319161111,
      "height_km": 482.80013489795874,
      "semi_major_axis_km": 6861.21120386099,
      "eccentricity": 0.00014208,
      "inclination_deg": 43.002,
      "raan_deg": 147.0385,
      "arg_perigee_deg": 272.9999,
      "mean_anomaly_deg": 87.069,
      "mean_motion_rev_day": 15.27571615
    },
    {
      "epoch": "2026-04-02T09:34:43.991328Z",
      "apogee_km": 484.03409862558965,
      "perigee_km": 482.0236398025927,
      "latitude_deg": 6.12144202906111e-05,
      "longitude_deg": 165.96012091876406,
      "height_km": 482.87089534458903,
      "semi_major_axis_km": 6861.165869214091,
      "eccentricity": 0.00014651,
      "inclination_deg": 43.0021,
      "raan_deg": 140.3917,
      "arg_perigee_deg": 266.2894,
      "mean_anomaly_deg": 93.7791,
      "mean_motion_rev_day": 15.27586755
    },
    {
      "epoch": "2026-04-03T09:07:03.995040Z",
      "apogee_km": 484.05355221785885,
      "perigee_km": 481.98463920875656,
      "latitude_deg": 1.5772361009460882e-05,
      "longitude_deg": 166.37041619351808,
      "height_km": 482.6888425859276,
      "semi_major_axis_km": 6861.156095713307,
      "eccentricity": 0.00015077,
      "inclination_deg": 43.0019,
      "raan_deg": 134.8521,
      "arg_perigee_deg": 275.9516,
      "mean_anomaly_deg": 84.1164,
      "mean_motion_rev_day": 15.27590019
    },
    {
      "epoch": "2026-04-04T11:47:45.207744Z",
      "apogee_km": 484.140439352288,
      "perigee_km": 481.99439183517916,
      "latitude_deg": 3.291515015190421e-05,
      "longitude_deg": 118.82788311987376,
      "height_km": 482.8164625256332,
      "semi_major_axis_km": 6861.204415593734,
      "eccentricity": 0.00015639,
      "inclination_deg": 43.005,
      "raan_deg": 128.5769,
      "arg_perigee_deg": 271.5138,
      "mean_anomaly_deg": 88.5535,
      "mean_motion_rev_day": 15.27573882
    },
    {
      "epoch": "2026-04-05T11:20:05.870688Z",
      "apogee_km": 484.14715000834804,
      "perigee_km": 481.9732482877698,
      "latitude_deg": 2.2920012717183854e-05,
      "longitude_deg": 119.23406015510317,
      "height_km": 483.2012311632875,
      "semi_major_axis_km": 6861.197199148059,
      "eccentricity": 0.00015842,
      "inclination_deg": 43.004,
      "raan_deg": 123.0359,
      "arg_perigee_deg": 250.4424,
      "mean_anomaly_deg": 109.6257,
      "mean_motion_rev_day": 15.27576292
    }
  ]
}